{
  "type": "FeatureCollection",
  "features": [
    {
      "type": "Feature",
      "properties": {
        "norad_id": 22675,
        "name": "COSMOS 2251",
        "group": "cosmos-2251-debris",
        "lat": 68.40331075739688,
        "lon": 94.00316775452094,
        "alt_km": 765.8102029751853,
        "timestamp": "2025-12-10T07:43:55.171611+00:00",
        "meta_object_name": "COSMOS 2251",
        "meta_object_id": "1993-036A",
        "meta_epoch": "2025-12-09T21:11:45.003264",
        "meta_mean_motion": 14.33203574,
        "meta_eccentricity": 0.0023882,
        "meta_inclination": 74.0394,
        "meta_ra_of_asc_node": 321.1031,
        "meta_arg_of_pericenter": 44.2578,
        "meta_mean_anomaly": 316.0477,
        "meta_ephemeris_type": 0,
        "meta_classification_type": "U",
        "meta_norad_cat_id": 22675,
        "meta_element_set_no": 999,
        "meta_rev_at_epoch": 69732,
        "meta_bstar": 9.7927e-05,
        "meta_mean_motion_dot": 2.44e-06,
        "meta_mean_motion_ddot": 0,
        "tle_line1": "1 22675U 93036A   25343.88315976  .00000244  00000+0  97927-4 0  9994",
        "tle_line2": "2 22675  74.0394 321.1031 0023882  44.2578 316.0477 14.33203574697322"
      },
      "geometry": {
        "type": "Point",
        "coordinates": [
          94.00316775452094,
          68.40331075739688
        ]
      }
    },
    {
      "type": "Feature",
      "properties": {
        "norad_id": 33757,
        "name": "COSMOS 2251 DEB",
        "group": "cosmos-2251-debris",
        "lat": 29.836513545581102,
        "lon": 138.57487980114556,
        "alt_km": 791.8140796644893,
        "timestamp": "2025-12-10T07:43:55.171636+00:00",
        "meta_object_name": "COSMOS 2251 DEB",
        "meta_object_id": "1993-036E",
        "meta_epoch": "2025-12-09T16:46:48.554976",
        "meta_mean_motion": 14.32579818,
        "meta_eccentricity": 0.0015144,
        "meta_inclination": 74.0366,
        "meta_ra_of_asc_node": 329.1609,
        "meta_arg_of_pericenter": 343.0015,
        "meta_mean_anomaly": 194.0335,
        "meta_ephemeris_type": 0,
        "meta_classification_type": "U",
        "meta_norad_cat_id": 33757,
        "meta_element_set_no": 999,
        "meta_rev_at_epoch": 87952,
        "meta_bstar": 7.9566e-05,
        "meta_mean_motion_dot": 1.9e-06,
        "meta_mean_motion_ddot": 0,
        "tle_line1": "1 33757U 93036E   25343.69917309  .00000190  00000+0  79566-4 0  9993",
        "tle_line2": "2 33757  74.0366 329.1609 0015144 343.0015 194.0335 14.32579818879528"
      },
      "geometry": {
        "type": "Point",
        "coordinates": [
          138.57487980114556,
          29.836513545581102
        ]
      }
    },
    {
      "type": "Feature",
      "properties": {
        "norad_id": 33758,
        "name": "COSMOS 2251 DEB",
        "group": "cosmos-2251-debris",
        "lat": -65.45948707331968,
        "lon": -179.26707776729975,
        "alt_km": 715.000443787736,
        "timestamp": "2025-12-10T07:43:55.171651+00:00",
        "meta_object_name": "COSMOS 2251 DEB",
        "meta_object_id": "1993-036F",
        "meta_epoch": "2025-12-09T15:37:07.442112",
        "meta_mean_motion": 14.51565225,
        "meta_eccentricity": 0.0017472,
        "meta_inclination": 74.0276,
        "meta_ra_of_asc_node": 220.848,
        "meta_arg_of_pericenter": 287.8728,
        "meta_mean_anomaly": 94.0374,
        "meta_ephemeris_type": 0,
        "meta_classification_type": "U",
        "meta_norad_cat_id": 33758,
        "meta_element_set_no": 999,
        "meta_rev_at_epoch": 88260,
        "meta_bstar": 0.0012406,
        "meta_mean_motion_dot": 4.951e-05,
        "meta_mean_motion_ddot": 0,
        "tle_line1": "1 33758U 93036F   25343.65078058  .00004951  00000+0  12406-2 0  9996",
        "tle_line2": "2 33758  74.0276 220.8480 0017472 287.8728  94.0374 14.51565225882608"
      },
      "geometry": {
        "type": "Point",
        "coordinates": [
          -179.26707776729975,
          -65.45948707331968
        ]
      }
    },
    {
      "type": "Feature",
      "properties": {
        "norad_id": 33760,
        "name": "COSMOS 2251 DEB",
        "group": "cosmos-2251-debris",
        "lat": 8.566596608923943,
        "lon": -71.63472586746136,
        "alt_km": 760.6820647773238,
        "timestamp": "2025-12-10T07:43:55.171663+00:00",
        "meta_object_name": "COSMOS 2251 DEB",
        "meta_object_id": "1993-036H",
        "meta_epoch": "2025-12-09T20:07:27.391872",
        "meta_mean_motion": 14.35669872,
        "meta_eccentricity": 0.0019747,
        "meta_inclination": 74.032,
        "meta_ra_of_asc_node": 286.7805,
        "meta_arg_of_pericenter": 25.9309,
        "meta_mean_anomaly": 4.4336,
        "meta_ephemeris_type": 0,
        "meta_classification_type": "U",
        "meta_norad_cat_id": 33760,
        "meta_element_set_no": 999,
        "meta_rev_at_epoch": 88083,
        "meta_bstar": 0.00020815,
        "meta_mean_motion_dot": 5.76e-06,
        "meta_mean_motion_ddot": 0,
        "tle_line1": "1 33760U 93036H   25343.83851148  .00000576  00000+0  20815-3 0  9991",
        "tle_line2": "2 33760  74.0320 286.7805 0019747  25.9309   4.4336 14.35669872880837"
      },
      "geometry": {
        "type": "Point",
        "coordinates": [
          -71.63472586746136,
          8.566596608923943
        ]
      }
    },
    {
      "type": "Feature",
      "properties": {
        "norad_id": 33761,
        "name": "COSMOS 2251 DEB",
        "group": "cosmos-2251-debris",
        "lat": -54.575750877887394,
        "lon": 100.37775255867174,
        "alt_km": 759.4100120964285,
        "timestamp": "2025-12-10T07:43:55.171673+00:00",
        "meta_object_name": "COSMOS 2251 DEB",
        "meta_object_id": "1993-036J",
        "meta_epoch": "2025-12-09T13:07:58.200960",
        "meta_mean_motion": 14.42530122,
        "meta_eccentricity": 0.0022972,
        "meta_inclination": 74.0368,
        "meta_ra_of_asc_node": 258.0858,
        "meta_arg_of_pericenter": 338.7902,
        "meta_mean_anomaly": 196.501,
        "meta_ephemeris_type": 0,
        "meta_classification_type": "U",
        "meta_norad_cat_id": 33761,
        "meta_element_set_no": 999,
        "meta_rev_at_epoch": 88188,
        "meta_bstar": 0.00082369,
        "meta_mean_motion_dot": 2.715e-05,
        "meta_mean_motion_ddot": 0,
        "tle_line1": "1 33761U 93036J   25343.54720140  .00002715  00000+0  82369-3 0  9996",
        "tle_line2": "2 33761  74.0368 258.0858 0022972 338.7902 196.5010 14.42530122881889"
      },
      "geometry": {
        "type": "Point",
        "coordinates": [
          100.37775255867174,
          -54.575750877887394
        ]
      }
    },
    {
      "type": "Feature",
      "properties": {
        "norad_id": 33762,
        "name": "COSMOS 2251 DEB",
        "group": "cosmos-2251-debris",
        "lat": -34.153776289993026,
        "lon": -56.74651480518327,
        "alt_km": 778.8258210513322,
        "timestamp": "2025-12-10T07:43:55.171684+00:00",
        "meta_object_name": "COSMOS 2251 DEB",
        "meta_object_id": "1993-036K",
        "meta_epoch": "2025-12-09T15:58:18.399936",
        "meta_mean_motion": 14.3366232,
        "meta_eccentricity": 0.0014877,
        "meta_inclination": 74.0415,
        "meta_ra_of_asc_node": 315.6473,
        "meta_arg_of_pericenter": 17.9825,
        "meta_mean_anomaly": 158.6588,
        "meta_ephemeris_type": 0,
        "meta_classification_type": "U",
        "meta_norad_cat_id": 33762,
        "meta_element_set_no": 999,
        "meta_rev_at_epoch": 88003,
        "meta_bstar": 9.599e-05,
        "meta_mean_motion_dot": 2.4e-06,
        "meta_mean_motion_ddot": 0,
        "tle_line1": "1 33762U 93036K   25343.66549074  .00000240  00000+0  95990-4 0  9991",
        "tle_line2": "2 33762  74.0415 315.6473 0014877  17.9825 158.6588 14.33662320880032"
      },
      "geometry": {
        "type": "Point",
        "coordinates": [
          -56.74651480518327,
          -34.153776289993026
        ]
      }
    },
    {
      "type": "Feature",
      "properties": {
        "norad_id": 33764,
        "name": "COSMOS 2251 DEB",
        "group": "cosmos-2251-debris",
        "lat": 50.56878028083783,
        "lon": -62.50385718632004,
        "alt_km": 772.0740403978307,
        "timestamp": "2025-12-10T07:43:55.171695+00:00",
        "meta_object_name": "COSMOS 2251 DEB",
        "meta_object_id": "1993-036M",
        "meta_epoch": "2025-12-09T19:57:07.636032",
        "meta_mean_motion": 14.39501365,
        "meta_eccentricity": 0.0024065,
        "meta_inclination": 74.0335,
        "meta_ra_of_asc_node": 278.0274,
        "meta_arg_of_pericenter": 244.2474,
        "meta_mean_anomaly": 146.6804,
        "meta_ephemeris_type": 0,
        "meta_classification_type": "U",
        "meta_norad_cat_id": 33764,
        "meta_element_set_no": 999,
        "meta_rev_at_epoch": 88115,
        "meta_bstar": 0.00062081,
        "meta_mean_motion_dot": 1.916e-05,
        "meta_mean_motion_ddot": 0,
        "tle_line1": "1 33764U 93036M   25343.83133838  .00001916  00000+0  62081-3 0  9994",
        "tle_line2": "2 33764  74.0335 278.0274 0024065 244.2474 146.6804 14.39501365881150"
      },
      "geometry": {
        "type": "Point",
        "coordinates": [
          -62.50385718632004,
          50.56878028083783
        ]
      }
    }
  ]
}